{
  "type": "FeatureCollection",
  "features": [
    {
      "type": "Feature",
      "properties": {
        "norad_id": 33844,
        "name": "COSMOS 2251 DEB",
        "group": "cosmos-2251-debris",
        "lat": 0.22538619713070282,
        "lon": -142.80318560617403,
        "alt_km": 800.2062324573017,
        "timestamp": "2025-12-21T05:44:51.980187+00:00",
        "meta_object_name": "COSMOS 2251 DEB",
        "meta_object_id": "1993-036CM",
        "meta_epoch": "2025-12-20T21:20:34.679328",
        "meta_mean_motion": 14.33731095,
        "meta_eccentricity": 0.00471083,
        "meta_inclination": 74.0666,
        "meta_ra_of_asc_node": 37.9003,
        "meta_arg_of_pericenter": 57.2037,
        "meta_mean_anomaly": 115.1862,
        "meta_ephemeris_type": 0,
        "meta_classification_type": "U",
        "meta_norad_cat_id": 33844,
        "meta_element_set_no": 999,
        "meta_rev_at_epoch": 87842,
        "meta_bstar": 0.00025063236,
        "meta_mean_motion_dot": 6.79e-06,
        "meta_mean_motion_ddot": 0,
        "tle_line1": "1 33844U 93036CM  25354.88929027  .00000679  00000+0  25063-3 0  9997",
        "tle_line2": "2 33844  74.0666  37.9003 0047108  57.2037 115.1862 14.33731095878428"
      },
      "geometry": {
        "type": "Point",
        "coordinates": [
          -142.80318560617403,
          0.22538619713070282
        ]
      }
    },
    {
      "type": "Feature",
      "properties": {
        "norad_id": 33848,
        "name": "COSMOS 2251 DEB",
        "group": "cosmos-2251-debris",
        "lat": -43.01445033453954,
        "lon": -33.667450452006996,
        "alt_km": 746.0793055203267,
        "timestamp": "2025-12-21T05:44:51.980199+00:00",
        "meta_object_name": "COSMOS 2251 DEB",
        "meta_object_id": "1993-036CR",
        "meta_epoch": "2025-12-20T23:27:20.649312",
        "meta_mean_motion": 14.44112087,
        "meta_eccentricity": 0.00416098,
        "meta_inclination": 74.0316,
        "meta_ra_of_asc_node": 342.3147,
        "meta_arg_of_pericenter": 35.6672,
        "meta_mean_anomaly": 357.2782,
        "meta_ephemeris_type": 0,
        "meta_classification_type": "U",
        "meta_norad_cat_id": 33848,
        "meta_element_set_no": 999,
        "meta_rev_at_epoch": 87950,
        "meta_bstar": 0.00073799722,
        "meta_mean_motion_dot": 2.529e-05,
        "meta_mean_motion_ddot": 0,
        "tle_line1": "1 33848U 93036CR  25354.97732233  .00002529  00000+0  73800-3 0  9990",
        "tle_line2": "2 33848  74.0316 342.3147 0041609  35.6672 357.2782 14.44112087879507"
      },
      "geometry": {
        "type": "Point",
        "coordinates": [
          -33.667450452006996,
          -43.01445033453954
        ]
      }
    },
    {
      "type": "Feature",
      "properties": {
        "norad_id": 33892,
        "name": "COSMOS 2251 DEB",
        "group": "cosmos-2251-debris",
        "lat": -33.130331212221805,
        "lon": 75.6175169222082,
        "alt_km": 890.111685802548,
        "timestamp": "2025-12-21T05:44:51.980209+00:00",
        "meta_object_name": "COSMOS 2251 DEB",
        "meta_object_id": "1993-036CV",
        "meta_epoch": "2025-12-20T00:22:08.893344",
        "meta_mean_motion": 14.23361225,
        "meta_eccentricity": 0.01124489,
        "meta_inclination": 73.8027,
        "meta_ra_of_asc_node": 88.7851,
        "meta_arg_of_pericenter": 118.6054,
        "meta_mean_anomaly": 57.4187,
        "meta_ephemeris_type": 0,
        "meta_classification_type": "U",
        "meta_norad_cat_id": 33892,
        "meta_element_set_no": 999,
        "meta_rev_at_epoch": 87058,
        "meta_bstar": 0.0004540357,
        "meta_mean_motion_dot": 1.073e-05,
        "meta_mean_motion_ddot": 0,
        "tle_line1": "1 33892U 93036CV  25354.01538071  .00001073  00000+0  45404-3 0  9990",
        "tle_line2": "2 33892  73.8027  88.7851 0112448 118.6054  57.4187 14.23361225870585"
      },
      "geometry": {
        "type": "Point",
        "coordinates": [
          75.6175169222082,
          -33.130331212221805
        ]
      }
    },
    {
      "type": "Feature",
      "properties": {
        "norad_id": 33894,
        "name": "COSMOS 2251 DEB",
        "group": "cosmos-2251-debris",
        "lat": 3.672942500098794,
        "lon": -23.001472347928427,
        "alt_km": 1306.4153515339713,
        "timestamp": "2025-12-21T05:44:51.980220+00:00",
        "meta_object_name": "COSMOS 2251 DEB",
        "meta_object_id": "1993-036CX",
        "meta_epoch": "2025-12-19T22:50:18.443904",
        "meta_mean_motion": 13.21320525,
        "meta_eccentricity": 0.05791531,
        "meta_inclination": 73.767,
        "meta_ra_of_asc_node": 337.9187,
        "meta_arg_of_pericenter": 256.3901,
        "meta_mean_anomaly": 97.2081,
        "meta_ephemeris_type": 0,
        "meta_classification_type": "U",
        "meta_norad_cat_id": 33894,
        "meta_element_set_no": 999,
        "meta_rev_at_epoch": 80803,
        "meta_bstar": 0.00109059,
        "meta_mean_motion_dot": 1.062e-05,
        "meta_mean_motion_ddot": 0,
        "tle_line1": "1 33894U 93036CX  25353.95160236  .00001062  00000+0  10906-2 0  9994",
        "tle_line2": "2 33894  73.7670 337.9187 0579153 256.3901  97.2081 13.21320525808033"
      },
      "geometry": {
        "type": "Point",
        "coordinates": [
          -23.001472347928427,
          3.672942500098794
        ]
      }
    },
    {
      "type": "Feature",
      "properties": {
        "norad_id": 33896,
        "name": "COSMOS 2251 DEB",
        "group": "cosmos-2251-debris",
        "lat": -72.12999263533754,
        "lon": 25.894732004419584,
        "alt_km": 779.9062519246008,
        "timestamp": "2025-12-21T05:44:51.980230+00:00",
        "meta_object_name": "COSMOS 2251 DEB",
        "meta_object_id": "1993-036CZ",
        "meta_epoch": "2025-12-20T20:46:15.406176",
        "meta_mean_motion": 14.1905557,
        "meta_eccentricity": 0.01268674,
        "meta_inclination": 73.7663,
        "meta_ra_of_asc_node": 141.9309,
        "meta_arg_of_pericenter": 316.3248,
        "meta_mean_anomaly": 197.2126,
        "meta_ephemeris_type": 0,
        "meta_classification_type": "U",
        "meta_norad_cat_id": 33896,
        "meta_element_set_no": 999,
        "meta_rev_at_epoch": 86855,
        "meta_bstar": 0.00032563489,
        "meta_mean_motion_dot": 7.09e-06,
        "meta_mean_motion_ddot": 0,
        "tle_line1": "1 33896U 93036CZ  25354.86545609  .00000709  00000+0  32563-3 0  9999",
        "tle_line2": "2 33896  73.7663 141.9309 0126867 316.3248 197.2126 14.19055570868554"
      },
      "geometry": {
        "type": "Point",
        "coordinates": [
          25.894732004419584,
          -72.12999263533754
        ]
      }
    },
    {
      "type": "Feature",
      "properties": {
        "norad_id": 33899,
        "name": "COSMOS 2251 DEB",
        "group": "cosmos-2251-debris",
        "lat": 45.26244240150395,
        "lon": -127.27786114176214,
        "alt_km": 645.1614686394041,
        "timestamp": "2025-12-21T05:44:51.980240+00:00",
        "meta_object_name": "COSMOS 2251 DEB",
        "meta_object_id": "1993-036DC",
        "meta_epoch": "2025-12-20T04:37:37.423200",
        "meta_mean_motion": 14.61249146,
        "meta_eccentricity": 0.00562569,
        "meta_inclination": 74.0544,
        "meta_ra_of_asc_node": 71.4909,
        "meta_arg_of_pericenter": 132.0189,
        "meta_mean_anomaly": 256.3671,
        "meta_ephemeris_type": 0,
        "meta_classification_type": "U",
        "meta_norad_cat_id": 33899,
        "meta_element_set_no": 999,
        "meta_rev_at_epoch": 88948,
        "meta_bstar": 0.0005222702,
        "meta_mean_motion_dot": 2.604e-05,
        "meta_mean_motion_ddot": 0,
        "tle_line1": "1 33899U 93036DC  25354.19279425  .00002604  00000+0  52227-3 0  9993",
        "tle_line2": "2 33899  74.0544  71.4909 0056256 132.0189 256.3671 14.61249146889481"
      },
      "geometry": {
        "type": "Point",
        "coordinates": [
          -127.27786114176214,
          45.26244240150395
        ]
      }
    },
    {
      "type": "Feature",
      "properties": {
        "norad_id": 33900,
        "name": "COSMOS 2251 DEB",
        "group": "cosmos-2251-debris",
        "lat": 71.03434056172173,
        "lon": 40.1739712833882,
        "alt_km": 671.6079942483711,
        "timestamp": "2025-12-21T05:44:51.980250+00:00",
        "meta_object_name": "COSMOS 2251 DEB",
        "meta_object_id": "1993-036DD",
        "meta_epoch": "2025-12-20T22:55:49.969344",
        "meta_mean_motion": 14.58372709,
        "meta_eccentricity": 0.00464826,
        "meta_inclination": 74.0182,
        "meta_ra_of_asc_node": 344.209,
        "meta_arg_of_pericenter": 133.9306,
        "meta_mean_anomaly": 255.4871,
        "meta_ephemeris_type": 0,
        "meta_classification_type": "U",
        "meta_norad_cat_id": 33900,
        "meta_element_set_no": 999,
        "meta_rev_at_epoch": 89156,
        "meta_bstar": 0.00025667658,
        "meta_mean_motion_dot": 1.176e-05,
        "meta_mean_motion_ddot": 0,
        "tle_line1": "1 33900U 93036DD  25354.95543946  .00001176  00000+0  25668-3 0  9994",
        "tle_line2": "2 33900  74.0182 344.2090 0046482 133.9306 255.4871 14.58372709891567"
      },
      "geometry": {
        "type": "Point",
        "coordinates": [
          40.1739712833882,
          71.03434056172173
        ]
      }
    }
  ]
}